[{"OBJECT_NAME":"STARLINK-1954","OBJECT_ID":"2021-009H","EPOCH":"2026-03-09T23:20:25.352160","MEAN_MOTION":15.30849174,"ECCENTRICITY":0.00046184,"INCLINATION":53.0574,"RA_OF_ASC_NODE":8.8654,"ARG_OF_PERICENTER":103.3293,"MEAN_ANOMALY":256.8222,"EPHEMERIS_TYPE":0,"CLASSIFICATION_TYPE":"U","NORAD_CAT_ID":47555,"ELEMENT_SET_NO":999,"REV_AT_EPOCH":28100,"BSTAR":0.0022371791,"MEAN_MOTION_DOT":0.00067883,"MEAN_MOTION_DDOT":0},{"OBJECT_NAME":"STARLINK-30834","OBJECT_ID":"2023-166B","EPOCH":"2026-03-09T16:27:46.258848","MEAN_MOTION":15.30204498,"ECCENTRICITY":7.025e-5,"INCLINATION":53.1599,"RA_OF_ASC_NODE":219.7703,"ARG_OF_PERICENTER":115.4663,"MEAN_ANOMALY":244.641,"EPHEMERIS_TYPE":0,"CLASSIFICATION_TYPE":"U","NORAD_CAT_ID":58151,"ELEMENT_SET_NO":999,"REV_AT_EPOCH":13317,"BSTAR":0.00068653531,"MEAN_MOTION_DOT":0.00020032,"MEAN_MOTION_DDOT":0}]
